STARLINK-35948          
1 66633U 25271S   25345.25003472 -.02099204  00000+0 -32784-1 0  9995
2 66633  53.1598 194.3298 0000898  92.3179 333.0209 15.56424799  4005
STARLINK-35967          
1 66634U 25271T   25345.25003472 -.02091457  00000+0 -32649-1 0  9998
2 66634  53.1599 194.3255 0001037  84.7668 342.4876 15.56422128  3933
STARLINK-35955          
1 66635U 25271U   25345.25003472 -.02111720  00000+0 -32991-1 0  9995
2 66635  53.1597 194.3218 0001089  76.8541 352.3147 15.56433294  4006
STARLINK-35968          
1 66636U 25271V   25345.25003472 -.02108451  00000+0 -32935-1 0  9991
2 66636  53.1595 194.3176 0001096  73.8232 357.2615 15.56431664  4003
STARLINK-35953          
1 66637U 25271W   25345.25003472 -.02115550  00000+0 -33057-1 0  9996
2 66637  53.1597 194.3139 0001082  74.2301 358.7736 15.56434368  4006
STARLINK-35972          
1 66638U 25271X   25345.25003472 -.02104047  00000+0 -32863-1 0  9990
2 66638  53.1597 194.3102 0001084  81.7895 353.1309 15.56427502  4007
STARLINK-35908          
1 66639U 25271Y   25345.25003472 -.02108297  00000+0 -32935-1 0  9992
2 66639  53.1596 194.3058 0001063  79.9790 356.8570 15.56430241  4001
STARLINK-35921          
1 66640U 25271Z   25345.25003472 -.02111943  00000+0 -32995-1 0  9992
2 66640  53.1597 194.3019 0001047  79.0628 359.6883 15.56433262  4008
STARLINK-35923          
1 66641U 25271AA  25345.25003472 -.02111728  00000+0 -32994-1 0  9993
2 66641  53.1595 194.2849 0001073  87.2248 359.1966 15.56431098  4007
STARLINK-35926          
1 66642U 25271AB  25345.25003472 -.02110947  00000+0 -32978-1 0  9998
2 66642  53.1595 194.2898 0001098  73.9559  10.5476 15.56432556  3762
STARLINK-35918          
1 66643U 25271AC  25345.25003472 -.02108914  00000+0 -32943-1 0  9992
2 66643  53.1597 194.2982 0001095  77.8350   2.8338 15.56431586  4009
STARLINK-35938          
1 66644U 25271AD  25345.25003472 -.02109531  00000+0 -32955-1 0  9992
2 66644  53.1595 194.2942 0001061  74.5918   7.9940 15.56431640  4007
