CCSDS_OMM_VERS = 2.0
CREATION_DATE  = 
ORIGINATOR     = 

OBJECT_NAME    = STARLINK-35948
OBJECT_ID      = 2025-271S
CENTER_NAME    = EARTH
REF_FRAME      = TEME
TIME_SYSTEM    = UTC
MEAN_ELEMENT_THEORY = SGP/SGP4

EPOCH          = 2025-12-11T06:00:02.999808
MEAN_MOTION    = 15.56424799
ECCENTRICITY   = .00008987
INCLINATION    = 53.1598
RA_OF_ASC_NODE = 194.3298
ARG_OF_PERICENTER = 92.3179
MEAN_ANOMALY   = 333.0209

EPHEMERIS_TYPE = 0
CLASSIFICATION_TYPE = U
NORAD_CAT_ID   = 66633
ELEMENT_SET_NO = 999
REV_AT_EPOCH   = 400
BSTAR          = -.32783561E-1
MEAN_MOTION_DOT = -.2099204E-1
MEAN_MOTION_DDOT = 0

CCSDS_OMM_VERS = 2.0
CREATION_DATE  = 
ORIGINATOR     = 

OBJECT_NAME    = STARLINK-35967
OBJECT_ID      = 2025-271T
CENTER_NAME    = EARTH
REF_FRAME      = TEME
TIME_SYSTEM    = UTC
MEAN_ELEMENT_THEORY = SGP/SGP4

EPOCH          = 2025-12-11T06:00:02.999808
MEAN_MOTION    = 15.56422128
ECCENTRICITY   = .00010373
INCLINATION    = 53.1599
RA_OF_ASC_NODE = 194.3255
ARG_OF_PERICENTER = 84.7668
MEAN_ANOMALY   = 342.4876

EPHEMERIS_TYPE = 0
CLASSIFICATION_TYPE = U
NORAD_CAT_ID   = 66634
ELEMENT_SET_NO = 999
REV_AT_EPOCH   = 393
BSTAR          = -.32649432E-1
MEAN_MOTION_DOT = -.2091457E-1
MEAN_MOTION_DDOT = 0

CCSDS_OMM_VERS = 2.0
CREATION_DATE  = 
ORIGINATOR     = 

OBJECT_NAME    = STARLINK-35955
OBJECT_ID      = 2025-271U
CENTER_NAME    = EARTH
REF_FRAME      = TEME
TIME_SYSTEM    = UTC
MEAN_ELEMENT_THEORY = SGP/SGP4

EPOCH          = 2025-12-11T06:00:02.999808
MEAN_MOTION    = 15.56433294
ECCENTRICITY   = .00010891
INCLINATION    = 53.1597
RA_OF_ASC_NODE = 194.3218
ARG_OF_PERICENTER = 76.8541
MEAN_ANOMALY   = 352.3147

EPHEMERIS_TYPE = 0
CLASSIFICATION_TYPE = U
NORAD_CAT_ID   = 66635
ELEMENT_SET_NO = 999
REV_AT_EPOCH   = 400
BSTAR          = -.32990648E-1
MEAN_MOTION_DOT = -.211172E-1
MEAN_MOTION_DDOT = 0

CCSDS_OMM_VERS = 2.0
CREATION_DATE  = 
ORIGINATOR     = 

OBJECT_NAME    = STARLINK-35968
OBJECT_ID      = 2025-271V
CENTER_NAME    = EARTH
REF_FRAME      = TEME
TIME_SYSTEM    = UTC
MEAN_ELEMENT_THEORY = SGP/SGP4

EPOCH          = 2025-12-11T06:00:02.999808
MEAN_MOTION    = 15.56431664
ECCENTRICITY   = .00010961
INCLINATION    = 53.1595
RA_OF_ASC_NODE = 194.3176
ARG_OF_PERICENTER = 73.8232
MEAN_ANOMALY   = 357.2615

EPHEMERIS_TYPE = 0
CLASSIFICATION_TYPE = U
NORAD_CAT_ID   = 66636
ELEMENT_SET_NO = 999
REV_AT_EPOCH   = 400
BSTAR          = -.32935182E-1
MEAN_MOTION_DOT = -.2108451E-1
MEAN_MOTION_DDOT = 0

CCSDS_OMM_VERS = 2.0
CREATION_DATE  = 
ORIGINATOR     = 

OBJECT_NAME    = STARLINK-35953
OBJECT_ID      = 2025-271W
CENTER_NAME    = EARTH
REF_FRAME      = TEME
TIME_SYSTEM    = UTC
MEAN_ELEMENT_THEORY = SGP/SGP4

EPOCH          = 2025-12-11T06:00:02.999808
MEAN_MOTION    = 15.56434368
ECCENTRICITY   = .00010827
INCLINATION    = 53.1597
RA_OF_ASC_NODE = 194.3139
ARG_OF_PERICENTER = 74.2301
MEAN_ANOMALY   = 358.7736

EPHEMERIS_TYPE = 0
CLASSIFICATION_TYPE = U
NORAD_CAT_ID   = 66637
ELEMENT_SET_NO = 999
REV_AT_EPOCH   = 400
BSTAR          = -.33056686E-1
MEAN_MOTION_DOT = -.211555E-1
MEAN_MOTION_DDOT = 0

CCSDS_OMM_VERS = 2.0
CREATION_DATE  = 
ORIGINATOR     = 

OBJECT_NAME    = STARLINK-35972
OBJECT_ID      = 2025-271X
CENTER_NAME    = EARTH
REF_FRAME      = TEME
TIME_SYSTEM    = UTC
MEAN_ELEMENT_THEORY = SGP/SGP4

EPOCH          = 2025-12-11T06:00:02.999808
MEAN_MOTION    = 15.56427502
ECCENTRICITY   = .0001084
INCLINATION    = 53.1597
RA_OF_ASC_NODE = 194.3102
ARG_OF_PERICENTER = 81.7895
MEAN_ANOMALY   = 353.1309

EPHEMERIS_TYPE = 0
CLASSIFICATION_TYPE = U
NORAD_CAT_ID   = 66638
ELEMENT_SET_NO = 999
REV_AT_EPOCH   = 400
BSTAR          = -.3286314E-1
MEAN_MOTION_DOT = -.2104047E-1
MEAN_MOTION_DDOT = 0

CCSDS_OMM_VERS = 2.0
CREATION_DATE  = 
ORIGINATOR     = 

OBJECT_NAME    = STARLINK-35908
OBJECT_ID      = 2025-271Y
CENTER_NAME    = EARTH
REF_FRAME      = TEME
TIME_SYSTEM    = UTC
MEAN_ELEMENT_THEORY = SGP/SGP4

EPOCH          = 2025-12-11T06:00:02.999808
MEAN_MOTION    = 15.56430241
ECCENTRICITY   = .00010633
INCLINATION    = 53.1596
RA_OF_ASC_NODE = 194.3058
ARG_OF_PERICENTER = 79.9790
MEAN_ANOMALY   = 356.8570

EPHEMERIS_TYPE = 0
CLASSIFICATION_TYPE = U
NORAD_CAT_ID   = 66639
ELEMENT_SET_NO = 999
REV_AT_EPOCH   = 400
BSTAR          = -.32934597E-1
MEAN_MOTION_DOT = -.2108297E-1
MEAN_MOTION_DDOT = 0

CCSDS_OMM_VERS = 2.0
CREATION_DATE  = 
ORIGINATOR     = 

OBJECT_NAME    = STARLINK-35921
OBJECT_ID      = 2025-271Z
CENTER_NAME    = EARTH
REF_FRAME      = TEME
TIME_SYSTEM    = UTC
MEAN_ELEMENT_THEORY = SGP/SGP4

EPOCH          = 2025-12-11T06:00:02.999808
MEAN_MOTION    = 15.56433262
ECCENTRICITY   = .00010475
INCLINATION    = 53.1597
RA_OF_ASC_NODE = 194.3019
ARG_OF_PERICENTER = 79.0628
MEAN_ANOMALY   = 359.6883

EPHEMERIS_TYPE = 0
CLASSIFICATION_TYPE = U
NORAD_CAT_ID   = 66640
ELEMENT_SET_NO = 999
REV_AT_EPOCH   = 400
BSTAR          = -.32995088E-1
MEAN_MOTION_DOT = -.2111943E-1
MEAN_MOTION_DDOT = 0

CCSDS_OMM_VERS = 2.0
CREATION_DATE  = 
ORIGINATOR     = 

OBJECT_NAME    = STARLINK-35923
OBJECT_ID      = 2025-271AA
CENTER_NAME    = EARTH
REF_FRAME      = TEME
TIME_SYSTEM    = UTC
MEAN_ELEMENT_THEORY = SGP/SGP4

EPOCH          = 2025-12-11T06:00:02.999808
MEAN_MOTION    = 15.56431098
ECCENTRICITY   = .00010731
INCLINATION    = 53.1595
RA_OF_ASC_NODE = 194.2849
ARG_OF_PERICENTER = 87.2248
MEAN_ANOMALY   = 359.1966

EPHEMERIS_TYPE = 0
CLASSIFICATION_TYPE = U
NORAD_CAT_ID   = 66641
ELEMENT_SET_NO = 999
REV_AT_EPOCH   = 400
BSTAR          = -.3299369E-1
MEAN_MOTION_DOT = -.2111728E-1
MEAN_MOTION_DDOT = 0

CCSDS_OMM_VERS = 2.0
CREATION_DATE  = 
ORIGINATOR     = 

OBJECT_NAME    = STARLINK-35926
OBJECT_ID      = 2025-271AB
CENTER_NAME    = EARTH
REF_FRAME      = TEME
TIME_SYSTEM    = UTC
MEAN_ELEMENT_THEORY = SGP/SGP4

EPOCH          = 2025-12-11T06:00:02.999808
MEAN_MOTION    = 15.56432556
ECCENTRICITY   = .00010988
INCLINATION    = 53.1595
RA_OF_ASC_NODE = 194.2898
ARG_OF_PERICENTER = 73.9559
MEAN_ANOMALY   = 10.5476

EPHEMERIS_TYPE = 0
CLASSIFICATION_TYPE = U
NORAD_CAT_ID   = 66642
ELEMENT_SET_NO = 999
REV_AT_EPOCH   = 376
BSTAR          = -.32977866E-1
MEAN_MOTION_DOT = -.2110947E-1
MEAN_MOTION_DDOT = 0

CCSDS_OMM_VERS = 2.0
CREATION_DATE  = 
ORIGINATOR     = 

OBJECT_NAME    = STARLINK-35918
OBJECT_ID      = 2025-271AC
CENTER_NAME    = EARTH
REF_FRAME      = TEME
TIME_SYSTEM    = UTC
MEAN_ELEMENT_THEORY = SGP/SGP4

EPOCH          = 2025-12-11T06:00:02.999808
MEAN_MOTION    = 15.56431586
ECCENTRICITY   = .00010954
INCLINATION    = 53.1597
RA_OF_ASC_NODE = 194.2982
ARG_OF_PERICENTER = 77.8350
MEAN_ANOMALY   = 2.8338

EPHEMERIS_TYPE = 0
CLASSIFICATION_TYPE = U
NORAD_CAT_ID   = 66643
ELEMENT_SET_NO = 999
REV_AT_EPOCH   = 400
BSTAR          = -.32943421E-1
MEAN_MOTION_DOT = -.2108914E-1
MEAN_MOTION_DDOT = 0

CCSDS_OMM_VERS = 2.0
CREATION_DATE  = 
ORIGINATOR     = 

OBJECT_NAME    = STARLINK-35938
OBJECT_ID      = 2025-271AD
CENTER_NAME    = EARTH
REF_FRAME      = TEME
TIME_SYSTEM    = UTC
MEAN_ELEMENT_THEORY = SGP/SGP4

EPOCH          = 2025-12-11T06:00:02.999808
MEAN_MOTION    = 15.56431640
ECCENTRICITY   = .0001061
INCLINATION    = 53.1595
RA_OF_ASC_NODE = 194.2942
ARG_OF_PERICENTER = 74.5918
MEAN_ANOMALY   = 7.9940

EPHEMERIS_TYPE = 0
CLASSIFICATION_TYPE = U
NORAD_CAT_ID   = 66644
ELEMENT_SET_NO = 999
REV_AT_EPOCH   = 400
BSTAR          = -.32954569E-1
MEAN_MOTION_DOT = -.2109531E-1
MEAN_MOTION_DDOT = 0

